CAS-2T & KS-1Q          
1 41847U 16066G   21110.73108557  .00000208  00000-0  41176-4 0  9997
2 41847  98.6071 169.6006 0365896  32.8476 329.4888 14.38176811233585
NAYIF-1 (EO-88)         
1 42017U 17008BX  21110.67201659  .00003864  00000-0  14462-3 0  9992
2 42017  97.3197 179.3044 0004714 327.6681  32.4269 15.27885698232438
ZHUHAI-1 02 (CAS-4B)    
1 42759U 17034B   21111.14512524  .00000521  00000-0  44683-4 0  9999
2 42759  43.0161 136.1310 0008181 172.9841 250.4381 15.10161210212487
ZHUHAI-1 01 (CAS-4A)    
1 42761U 17034D   21111.14744979  .00000525  00000-0  44864-4 0  9998
2 42761  43.0164 135.2126 0009041 175.2018 292.6553 15.10242506212483
MAX VALIER SAT          
1 42778U 17036P   21110.70318167  .00002248  00000-0  97118-4 0  9999
2 42778  97.2616 161.1931 0012529  28.7556 331.4369 15.23433113212498
RADFXSAT (FOX-1B)       
1 43017U 17073E   21110.71202801  .00000998  00000-0  81328-4 0  9991
2 43017  97.7106  16.9832 0256410 128.5482 233.9015 14.79438857184589
FOX-1D (AO-92)          
1 43137U 18004AC  21111.18785466  .00002448  00000-0  10070-3 0  9991
2 43137  97.4093 185.8027 0010228  59.8056 300.4193 15.25067039181928
DIWATA-2B               
1 43678U 18084H   21111.10283236  .00000253  00000-0  30849-4 0  9998
2 43678  97.9142 236.1168 0008420 236.9083 123.1356 14.91732951134881
ES'HAIL 2               
1 43700U 18090A   21110.85525455  .00000144  00000-0  00000-0 0  9995
2 43700   0.0166 250.2699 0002558 170.8188 121.7492  1.00273239  8792
FOX-1CLIFF (AO-95)      
1 43770U 18099N   21110.83370048  .00000305  00000-0  32832-4 0  9996
2 43770  97.6686 182.2843 0013072 248.0325 111.9507 14.95268760129846
ITASAT 1                
1 43786U 18099AE  21110.76436132  .00000370  00000-0  38465-4 0  9992
2 43786  97.6706 182.8544 0013740 240.8710 119.1136 14.95571096129869
JY1SAT (JO-97)          
1 43803U 18099AX  21110.67063550  .00001063  00000-0  10028-3 0  9996
2 43803  97.6663 182.5214 0013789 240.3874 119.5974 14.95802170129854
UWE-4                   
1 43880U 18111E   21111.16100273  .00001295  00000-0  11803-3 0  9994
2 43880  97.6905  19.8631 0010629 300.7364  59.2810 14.96810775124516
PSAT2 (NO-104)          
1 44354U 19036R   21111.17705387  .00019239  00000-0  25798-3 0  9991
2 44354  28.5269 148.5210 0330841  15.7243 345.3352 15.12153841100283
BRICSAT2 (NO-103)       
1 44355U 19036S   21111.19291282  .00041302  00000-0  46951-3 0  9998
2 44355  28.5232 112.1204 0275901  75.0428 288.0539 15.26496661100659
JAISAT-1                
1 44419U 19038F   21110.86204688  .00002001  00000-0  11462-3 0  9990
2 44419  97.5829  75.8031 0021966 146.8914 213.3697 15.13599667 99084
DUCHIFAT-3              
1 44854U 19089C   21110.99304214  .00000907  00000-0  78994-4 0  9996
2 44854  36.9650  80.4249 0007964  25.2696 334.8498 14.99430059 74474
RS-44 & BREEZE-KM R/B   
1 44909U 19096E   21111.16270867  .00000018  00000-0  32029-4 0  9993
2 44909  82.5200 150.8826 0216567 226.8339 131.4485 12.79709662 61535
ORBITAL FACTORY 2 (OF-2)
1 45113U 19071C   21110.94042824  .00004329  00000-0  13491-3 0  9999
2 45113  51.6425 316.2911 0012724  86.7225 273.5213 15.35356846 68337
HUSKYSAT-1 (HO-107)     
1 45119U 19071J   21110.82317941  .00004612  00000-0  14274-3 0  9992
2 45119  51.6427 316.2553 0012063  83.0227 277.2127 15.35416307 68317
BY70-2                  
1 45857U 20042B   21111.12708954  .00001624  00000-0  23816-3 0  9995
2 45857  97.9848 187.4724 0012299  46.4319 313.7928 14.76866826 43081
SALSAT                  
1 46495U 20068K   21110.95680879  .00000880  00000-0  69079-4 0  9992
2 46495  97.6897  48.8069 0015283 266.9087  93.0387 15.03421429 30697
BY70-3                  
1 46839U 20079N   21111.14967204  .00005611  00000-0  17657-3 0  9999
2 46839  97.2422 186.1475 0008655  59.7854 355.6905 15.33306988 25424
RADFXSAT-2 (AO-109)     
1 47311U 21002C   21110.66232620  .00001556  00000-0  80133-4 0  9999
2 47311  60.6843 147.5058 0027549  13.2561 346.9243 15.21461430 14070
UVSQ-SAT                
1 47438U 21006AB  21110.84643920  .00001498  00000-0  88445-4 0  9991
2 47438  97.4925 173.0893 0011274 300.7161  59.2959 15.13009183 13349
